{
  "norad_id": 38745,
  "name": "EXPRESS-MD2",
  "history": [
    {
      "epoch": "2026-03-28T19:21:21.060864Z",
      "apogee_km": 2772.9475847007916,
      "perigee_km": 258.03970323901285,
      "latitude_deg": 6.238399898400859e-06,
      "longitude_deg": -153.26870077734443,
      "height_km": 534.7303327370843,
      "semi_major_axis_km": 7893.630643969902,
      "eccentricity": 0.15929982,
      "inclination_deg": 49.8354,
      "raan_deg": 323.2907,
      "arg_perigee_deg": 315.2703,
      "mean_anomaly_deg": 32.9913,
      "mean_motion_rev_day": 12.37905693
    },
    {
      "epoch": "2026-03-29T01:10:09.703488Z",
      "apogee_km": 2772.767089515516,
      "perigee_km": 258.0520709501534,
      "latitude_deg": 1.9278537087988522e-05,
      "longitude_deg": 118.51318006856269,
      "height_km": 526.8613246890544,
      "semi_major_axis_km": 7893.5465802328345,
      "eccentricity": 0.1592893,
      "inclination_deg": 49.8351,
      "raan_deg": 322.514,
      "arg_perigee_deg": 315.9211,
      "mean_anomaly_deg": 32.4871,
      "mean_motion_rev_day": 12.37925468
    },
    {
      "epoch": "2026-03-30T02:21:36.112032Z",
      "apogee_km": 2771.8060565581354,
      "perigee_km": 258.13948274213544,
      "latitude_deg": -3.936668197263963e-06,
      "longitude_deg": 96.25128156535322,
      "height_km": 494.0971304905425,
      "semi_major_axis_km": 7893.109769650135,
      "eccentricity": 0.1592317,
      "inclination_deg": 49.8346,
      "raan_deg": 319.1467,
      "arg_perigee_deg": 318.7374,
      "mean_anomaly_deg": 30.3186,
      "mean_motion_rev_day": 12.38028231
    }
  ]
}